{
  "type": "FeatureCollection",
  "features": [
    { "type": "Feature", "properties": { "SCH_NAME": "DuPont Manual High School", "LEVEL_": "H" }, "geometry": { "type": "Point", "coordinates": [-85.759, 38.234] } },
    { "type": "Feature", "properties": { "SCH_NAME": "Eastern High School", "LEVEL_": "H" }, "geometry": { "type": "Point", "coordinates": [-85.541, 38.209] } },
    { "type": "Feature", "properties": { "SCH_NAME": "Meyzeek Middle School", "LEVEL_": "M" }, "geometry": { "type": "Point", "coordinates": [-85.71, 38.219] } },
    { "type": "Feature", "properties": { "SCH_NAME": "Noe Middle School", "LEVEL_": "M" }, "geometry": { "type": "Point", "coordinates": [-85.725, 38.226] } },
    { "type": "Feature", "properties": { "SCH_NAME": "Atherton High School", "LEVEL_": "H" }, "geometry": { "type": "Point", "coordinates": [-85.692, 38.233] } },
    { "type": "Feature", "properties": { "SCH_NAME": "Bloom Elementary School", "LEVEL_": "E" }, "geometry": { "type": "Point", "coordinates": [-85.64, 38.306] } },
    { "type": "Feature", "properties": { "SCH_NAME": "Wheatley Elementary School", "LEVEL_": "E" }, "geometry": { "type": "Point", "coordinates": [-85.657, 38.22] } },
    { "type": "Feature", "properties": { "SCH_NAME": "Johnson Traditional Middle School", "LEVEL_": "M" }, "geometry": { "type": "Point", "coordinates": [-85.671, 38.26] } },
    { "type": "Feature", "properties": { "SCH_NAME": "J. Graham Brown School", "LEVEL_": "E" }, "geometry": { "type": "Point", "coordinates": [-85.751, 38.247] } },
    { "type": "Feature", "properties": { "SCH_NAME": "Male High School", "LEVEL_": "H" }, "geometry": { "type": "Point", "coordinates": [-85.73, 38.216] } },
    { "type": "Feature", "properties": { "SCH_NAME": "Kammerer Middle School", "LEVEL_": "M" }, "geometry": { "type": "Point", "coordinates": [-85.846, 38.159] } },
    { "type": "Feature", "properties": { "SCH_NAME": "Maupin Elementary School", "LEVEL_": "E" }, "geometry": { "type": "Point", "coordinates": [-85.795, 38.238] } }
  ]
}
